{
  "norad_id": 47624,
  "name": "STARLINK-1669",
  "history": [
    {
      "epoch": "2026-03-28T22:00:01.999584",
      "apogee_km": 318.2190203228256,
      "perigee_km": 313.87114905881845,
      "latitude_deg": 52.70447670971651,
      "longitude_deg": 110.40222175978124,
      "semi_major_axis_km": 6694.182084690821,
      "eccentricity": 0.00032475,
      "inclination_deg": 53.0297,
      "raan_deg": 255.4206,
      "arg_perigee_deg": 215.6861,
      "mean_anomaly_deg": 37.8667,
      "mean_motion_rev_day": 15.85099322
    },
    {
      "epoch": "2026-03-29T04:00:01.999584",
      "apogee_km": 317.57804675584975,
      "perigee_km": 313.0171404237781,
      "latitude_deg": -38.887808008031776,
      "longitude_deg": 134.40222175978124,
      "semi_major_axis_km": 6693.434593589814,
      "eccentricity": 0.0003407,
      "inclination_deg": 53.0296,
      "raan_deg": 254.1544,
      "arg_perigee_deg": 218.7812,
      "mean_anomaly_deg": 22.3105,
      "mean_motion_rev_day": 15.85364854
    }
  ]
}